{
  "type": "FeatureCollection",
  "features": [
    {
      "type": "Feature",
      "properties": {
        "norad_id": 38755,
        "name": "SPOT 6",
        "group": "resource",
        "lat": -52.14223551279086,
        "lon": -128.83109458006993,
        "alt_km": 705.6834601184528,
        "timestamp": "2025-12-23T05:02:11.680482+00:00",
        "meta_object_name": "SPOT 6",
        "meta_object_id": "2012-047A",
        "meta_epoch": "2025-12-22T23:01:58.895616",
        "meta_mean_motion": 14.58539862,
        "meta_eccentricity": 0.00013017,
        "meta_inclination": 98.1561,
        "meta_ra_of_asc_node": 61.5557,
        "meta_arg_of_pericenter": 78.6095,
        "meta_mean_anomaly": 281.525,
        "meta_ephemeris_type": 0,
        "meta_classification_type": "U",
        "meta_norad_cat_id": 38755,
        "meta_element_set_no": 999,
        "meta_rev_at_epoch": 70736,
        "meta_bstar": 4.9074439e-05,
        "meta_mean_motion_dot": 1.83e-06,
        "meta_mean_motion_ddot": 0,
        "tle_line1": "1 38755U 12047A   25356.95970944  .00000183  00000+0  49074-4 0  9999",
        "tle_line2": "2 38755  98.1561  61.5557 0001301  78.6095 281.5250 14.58539862707366"
      },
      "geometry": {
        "type": "Point",
        "coordinates": [
          -128.83109458006993,
          -52.14223551279086
        ]
      }
    },
    {
      "type": "Feature",
      "properties": {
        "norad_id": 39019,
        "name": "PLEIADES 1B",
        "group": "resource",
        "lat": 48.16703249072111,
        "lon": -101.05824006125576,
        "alt_km": 692.9354601817295,
        "timestamp": "2025-12-23T05:02:11.680492+00:00",
        "meta_object_name": "PLEIADES 1B",
        "meta_object_id": "2012-068A",
        "meta_epoch": "2025-12-22T23:29:54.123360",
        "meta_mean_motion": 14.585607,
        "meta_eccentricity": 0.00011782,
        "meta_inclination": 98.1786,
        "meta_ra_of_asc_node": 69.4693,
        "meta_arg_of_pericenter": 85.3392,
        "meta_mean_anomaly": 274.7942,
        "meta_ephemeris_type": 0,
        "meta_classification_type": "U",
        "meta_norad_cat_id": 39019,
        "meta_element_set_no": 999,
        "meta_rev_at_epoch": 69516,
        "meta_bstar": 5.0704297e-05,
        "meta_mean_motion_dot": 1.9e-06,
        "meta_mean_motion_ddot": 0,
        "tle_line1": "1 39019U 12068A   25356.97909865  .00000190  00000+0  50704-4 0  9992",
        "tle_line2": "2 39019  98.1786  69.4693 0001178  85.3392 274.7942 14.58560700695165"
      },
      "geometry": {
        "type": "Point",
        "coordinates": [
          -101.05824006125576,
          48.16703249072111
        ]
      }
    },
    {
      "type": "Feature",
      "properties": {
        "norad_id": 39030,
        "name": "GOKTURK 2",
        "group": "resource",
        "lat": -74.20799900543916,
        "lon": -10.183500701188185,
        "alt_km": 652.3323190133979,
        "timestamp": "2025-12-23T05:02:11.680502+00:00",
        "meta_object_name": "GOKTURK 2",
        "meta_object_id": "2012-073A",
        "meta_epoch": "2025-12-22T22:59:44.758752",
        "meta_mean_motion": 14.75305393,
        "meta_eccentricity": 0.0001355,
        "meta_inclination": 97.6883,
        "meta_ra_of_asc_node": 198.109,
        "meta_arg_of_pericenter": 106.6133,
        "meta_mean_anomaly": 253.5226,
        "meta_ephemeris_type": 0,
        "meta_classification_type": "U",
        "meta_norad_cat_id": 39030,
        "meta_element_set_no": 999,
        "meta_rev_at_epoch": 69852,
        "meta_bstar": 0.00013033963,
        "meta_mean_motion_dot": 8.36e-06,
        "meta_mean_motion_ddot": 0,
        "tle_line1": "1 39030U 12073A   25356.95815693  .00000836  00000+0  13034-3 0  9995",
        "tle_line2": "2 39030  97.6883 198.1090 0001355 106.6133 253.5226 14.75305393698525"
      },
      "geometry": {
        "type": "Point",
        "coordinates": [
          -10.183500701188185,
          -74.20799900543916
        ]
      }
    },
    {
      "type": "Feature",
      "properties": {
        "norad_id": 39084,
        "name": "LANDSAT 8",
        "group": "resource",
        "lat": -65.50034141979238,
        "lon": -133.33198071292372,
        "alt_km": 710.4197059215521,
        "timestamp": "2025-12-23T05:02:11.680511+00:00",
        "meta_object_name": "LANDSAT 8",
        "meta_object_id": "2013-008A",
        "meta_epoch": "2025-12-22T21:18:54.572832",
        "meta_mean_motion": 14.57112583,
        "meta_eccentricity": 0.00010648,
        "meta_inclination": 98.2058,
        "meta_ra_of_asc_node": 64.8112,
        "meta_arg_of_pericenter": 91.9678,
        "meta_mean_anomaly": 268.1642,
        "meta_ephemeris_type": 0,
        "meta_classification_type": "U",
        "meta_norad_cat_id": 39084,
        "meta_element_set_no": 999,
        "meta_rev_at_epoch": 67222,
        "meta_bstar": 0.00010476715,
        "meta_mean_motion_dot": 4.27e-06,
        "meta_mean_motion_ddot": 0,
        "tle_line1": "1 39084U 13008A   25356.88813163  .00000427  00000+0  10477-3 0  9999",
        "tle_line2": "2 39084  98.2058  64.8112 0001064  91.9678 268.1642 14.57112583672226"
      },
      "geometry": {
        "type": "Point",
        "coordinates": [
          -133.33198071292372,
          -65.50034141979238
        ]
      }
    },
    {
      "type": "Feature",
      "properties": {
        "norad_id": 39086,
        "name": "SARAL",
        "group": "resource",
        "lat": 35.4616626123206,
        "lon": 174.85181799935071,
        "alt_km": 778.797523914096,
        "timestamp": "2025-12-23T05:02:11.680522+00:00",
        "meta_object_name": "SARAL",
        "meta_object_id": "2013-009A",
        "meta_epoch": "2025-12-22T22:09:55.101888",
        "meta_mean_motion": 14.32760455,
        "meta_eccentricity": 0.00029653,
        "meta_inclination": 98.5503,
        "meta_ra_of_asc_node": 180.721,
        "meta_arg_of_pericenter": 89.6587,
        "meta_mean_anomaly": 270.4937,
        "meta_ephemeris_type": 0,
        "meta_classification_type": "U",
        "meta_norad_cat_id": 39086,
        "meta_element_set_no": 999,
        "meta_rev_at_epoch": 67036,
        "meta_bstar": 5.9203338e-05,
        "meta_mean_motion_dot": 1.18e-06,
        "meta_mean_motion_ddot": 0,
        "tle_line1": "1 39086U 13009A   25356.92355442  .00000118  00000+0  59203-4 0  9996",
        "tle_line2": "2 39086  98.5503 180.7210 0002965  89.6587 270.4937 14.32760455670363"
      },
      "geometry": {
        "type": "Point",
        "coordinates": [
          174.85181799935071,
          35.4616626123206
        ]
      }
    },
    {
      "type": "Feature",
      "properties": {
        "norad_id": 39150,
        "name": "GAOFEN-1",
        "group": "resource",
        "lat": 19.860723075305664,
        "lon": 64.79701205558307,
        "alt_km": 640.7227903878984,
        "timestamp": "2025-12-23T05:02:11.680533+00:00",
        "meta_object_name": "GAOFEN-1",
        "meta_object_id": "2013-018A",
        "meta_epoch": "2025-12-22T22:26:24.349056",
        "meta_mean_motion": 14.76495177,
        "meta_eccentricity": 0.00184718,
        "meta_inclination": 97.9318,
        "meta_ra_of_asc_node": 67.4138,
        "meta_arg_of_pericenter": 112.0534,
        "meta_mean_anomaly": 248.264,
        "meta_ephemeris_type": 0,
        "meta_classification_type": "U",
        "meta_norad_cat_id": 39150,
        "meta_element_set_no": 999,
        "meta_rev_at_epoch": 68223,
        "meta_bstar": 5.4891761e-05,
        "meta_mean_motion_dot": 3.32e-06,
        "meta_mean_motion_ddot": 0,
        "tle_line1": "1 39150U 13018A   25356.93500404  .00000332  00000+0  54892-4 0  9996",
        "tle_line2": "2 39150  97.9318  67.4138 0018471 112.0534 248.2640 14.76495177682231"
      },
      "geometry": {
        "type": "Point",
        "coordinates": [
          64.79701205558307,
          19.860723075305664
        ]
      }
    },
    {
      "type": "Feature",
      "properties": {
        "norad_id": 39160,
        "name": "VNREDSAT 1",
        "group": "resource",
        "lat": 6.433571403973769,
        "lon": 51.21620298528932,
        "alt_km": 679.1923811204806,
        "timestamp": "2025-12-23T05:02:11.680543+00:00",
        "meta_object_name": "VNREDSAT 1",
        "meta_object_id": "2013-021B",
        "meta_epoch": "2025-12-22T22:26:59.602848",
        "meta_mean_motion": 14.64936625,
        "meta_eccentricity": 0.00011949,
        "meta_inclination": 97.936,
        "meta_ra_of_asc_node": 51.8527,
        "meta_arg_of_pericenter": 83.2127,
        "meta_mean_anomaly": 276.9212,
        "meta_ephemeris_type": 0,
        "meta_classification_type": "U",
        "meta_norad_cat_id": 39160,
        "meta_element_set_no": 999,
        "meta_rev_at_epoch": 67448,
        "meta_bstar": 0.0001184955,
        "meta_mean_motion_dot": 5.88e-06,
        "meta_mean_motion_ddot": 0,
        "tle_line1": "1 39160U 13021B   25356.93541207  .00000588  00000+0  11850-3 0  9996",
        "tle_line2": "2 39160  97.9360  51.8527 0001194  83.2127 276.9212 14.64936625674485"
      },
      "geometry": {
        "type": "Point",
        "coordinates": [
          51.21620298528932,
          6.433571403973769
        ]
      }
    }
  ]
}